[{"OBJECT_NAME":"STARLINK-6330","OBJECT_ID":"2023-094X","EPOCH":"2026-03-09T22:00:01.999584","MEAN_MOTION":15.14782583,"ECCENTRICITY":0.00015787,"INCLINATION":43.0002,"RA_OF_ASC_NODE":28.1806,"ARG_OF_PERICENTER":279.3324,"MEAN_ANOMALY":121.2544,"EPHEMERIS_TYPE":0,"CLASSIFICATION_TYPE":"U","NORAD_CAT_ID":57239,"ELEMENT_SET_NO":999,"REV_AT_EPOCH":572,"BSTAR":0.0041843457,"MEAN_MOTION_DOT":0.00079712,"MEAN_MOTION_DDOT":0},{"OBJECT_NAME":"CZ-4C DEB","OBJECT_ID":"2018-031H","EPOCH":"2026-03-09T10:10:58.582560","MEAN_MOTION":15.14033759,"ECCENTRICITY":0.00199639,"INCLINATION":98.1663,"RA_OF_ASC_NODE":242.9335,"ARG_OF_PERICENTER":272.748,"MEAN_ANOMALY":87.1465,"EPHEMERIS_TYPE":0,"CLASSIFICATION_TYPE":"U","NORAD_CAT_ID":43266,"ELEMENT_SET_NO":999,"REV_AT_EPOCH":43166,"BSTAR":0.00079064643,"MEAN_MOTION_DOT":0.00014379,"MEAN_MOTION_DDOT":0}]
